{"type": "FeatureCollection", "features": [ {"type": "Feature", "properties": {"norad_id": 17070, "name": "POLAR BEAR", "group": "nnss", "lat": 34.153641712880216, "lon": -175.88860842070352, "alt_km": 978.8310236311008, "timestamp": "2025-12-10T18:57:00.334081+00:00", "meta": {"OBJECT_NAME": "POLAR BEAR", "OBJECT_ID": "1986-088A", "EPOCH": "2025-12-10T12:05:37.086144", "MEAN_MOTION": 13.75250149, "ECCENTRICITY": 0.0040839, "INCLINATION": 89.6176, "RA_OF_ASC_NODE": 183.8633, "ARG_OF_PERICENTER": 125.7228, "MEAN_ANOMALY": 295.451, "EPHEMERIS_TYPE": 0, "CLASSIFICATION_TYPE": "U", "NORAD_CAT_ID": 17070, "ELEMENT_SET_NO": 999, "REV_AT_EPOCH": 95948, "BSTAR": 0.00014788, "MEAN_MOTION_DOT": 1.54e-06, "MEAN_MOTION_DDOT": 0}, "tle": {"line1": "1 17070U 86088A   25344.50390146  .00000154  00000+0  14788-3 0  9991", "line2": "2 17070  89.6176 183.8633 0040839 125.7228 295.4510 13.75250149959485"}}, "geometry": {"type": "Point", "coordinates": [-175.88860842070352, 34.153641712880216]}}, {"type": "Feature", "properties": {"norad_id": 18361, "name": "OSCAR 27", "group": "nnss", "lat": 36.19461547189566, "lon": -100.52664150663908, "alt_km": 1082.071476531055, "timestamp": "2025-12-10T18:57:00.334092+00:00", "meta": {"OBJECT_NAME": "OSCAR 27", "OBJECT_ID": "1987-080A", "EPOCH": "2025-12-10T12:52:14.922048", "MEAN_MOTION": 13.44906041, "ECCENTRICITY": 0.0102747, "INCLINATION": 90.3742, "RA_OF_ASC_NODE": 79.1899, "ARG_OF_PERICENTER": 230.1795, "MEAN_ANOMALY": 129.0276, "EPHEMERIS_TYPE": 0, "CLASSIFICATION_TYPE": "U", "NORAD_CAT_ID": 18361, "ELEMENT_SET_NO": 999, "REV_AT_EPOCH": 87527, "BSTAR": 0.00026849, "MEAN_MOTION_DOT": 1.7e-06, "MEAN_MOTION_DDOT": 0}, "tle": {"line1": "1 18361U 87080A   25344.53628382  .00000170  00000+0  26849-3 0  9996", "line2": "2 18361  90.3742  79.1899 0102747 230.1795 129.0276 13.44906041875275"}}, "geometry": {"type": "Point", "coordinates": [-100.52664150663908, 36.19461547189566]}}, {"type": "Feature", "properties": {"norad_id": 18362, "name": "OSCAR 29", "group": "nnss", "lat": 20.78526708720104, "lon": -100.19930548167315, "alt_km": 1096.931685663787, "timestamp": "2025-12-10T18:57:00.334103+00:00", "meta": {"OBJECT_NAME": "OSCAR 29", "OBJECT_ID": "1987-080B", "EPOCH": "2025-12-10T07:44:04.763040", "MEAN_MOTION": 13.44447807, "ECCENTRICITY": 0.0103811, "INCLINATION": 90.3754, "RA_OF_ASC_NODE": 79.6406, "ARG_OF_PERICENTER": 254.1865, "MEAN_ANOMALY": 165.6643, "EPHEMERIS_TYPE": 0, "CLASSIFICATION_TYPE": "U", "NORAD_CAT_ID": 18362, "ELEMENT_SET_NO": 999, "REV_AT_EPOCH": 87477, "BSTAR": 0.0002499, "MEAN_MOTION_DOT": 1.57e-06, "MEAN_MOTION_DDOT": 0}, "tle": {"line1": "1 18362U 87080B   25344.32227735  .00000157  00000+0  24990-3 0  9991", "line2": "2 18362  90.3754  79.6406 0103811 254.1865 165.6643 13.44447807874773"}}, "geometry": {"type": "Point", "coordinates": [-100.19930548167315, 20.78526708720104]}}, {"type": "Feature", "properties": {"norad_id": 19070, "name": "OSCAR 23", "group": "nnss", "lat": 50.84454955248197, "lon": 15.937274090648952, "alt_km": 1248.974315095762, "timestamp": "2025-12-10T18:57:00.334113+00:00", "meta": {"OBJECT_NAME": "OSCAR 23", "OBJECT_ID": "1988-033A", "EPOCH": "2025-12-10T12:05:29.983200", "MEAN_MOTION": 13.27786635, "ECCENTRICITY": 0.0189345, "INCLINATION": 90.3214, "RA_OF_ASC_NODE": 16.3233, "ARG_OF_PERICENTER": 186.1416, "MEAN_ANOMALY": 301.1499, "EPHEMERIS_TYPE": 0, "CLASSIFICATION_TYPE": "U", "NORAD_CAT_ID": 19070, "ELEMENT_SET_NO": 999, "REV_AT_EPOCH": 82223, "BSTAR": 0.00020511, "MEAN_MOTION_DOT": 1.1e-06, "MEAN_MOTION_DDOT": 0}, "tle": {"line1": "1 19070U 88033A   25344.50381925  .00000110  00000+0  20511-3 0  9993", "line2": "2 19070  90.3214  16.3233 0189345 186.1416 301.1499 13.27786635822235"}}, "geometry": {"type": "Point", "coordinates": [15.937274090648952, 50.84454955248197]}}, {"type": "Feature", "properties": {"norad_id": 19071, "name": "OSCAR 32", "group": "nnss", "lat": 18.67866571980299, "lon": -163.42689512826354, "alt_km": 1015.4632392513713, "timestamp": "2025-12-10T18:57:00.334123+00:00", "meta": {"OBJECT_NAME": "OSCAR 32", "OBJECT_ID": "1988-033B", "EPOCH": "2025-12-10T04:02:11.577120", "MEAN_MOTION": 13.27953499, "ECCENTRICITY": 0.01881562, "INCLINATION": 90.3219, "RA_OF_ASC_NODE": 16.4448, "ARG_OF_PERICENTER": 173.9306, "MEAN_ANOMALY": 258.7457, "EPHEMERIS_TYPE": 0, "CLASSIFICATION_TYPE": "U", "NORAD_CAT_ID": 19071, "ELEMENT_SET_NO": 999, "REV_AT_EPOCH": 82231, "BSTAR": 0.00017276505, "MEAN_MOTION_DOT": 9.5e-07, "MEAN_MOTION_DDOT": 0}, "tle": {"line1": "1 19071U 88033B   25344.16818955  .00000095  00000+0  17277-3 0  9991", "line2": "2 19071  90.3219  16.4448 0188156 173.9306 258.7457 13.27953499822315"}}, "geometry": {"type": "Point", "coordinates": [-163.42689512826354, 18.67866571980299]}}, {"type": "Feature", "properties": {"norad_id": 19223, "name": "NOVA 2", "group": "nnss", "lat": 34.01302774598878, "lon": 78.28355593171534, "alt_km": 1148.5850928252266, "timestamp": "2025-12-10T18:57:00.334134+00:00", "meta": {"OBJECT_NAME": "NOVA 2", "OBJECT_ID": "1988-052A", "EPOCH": "2025-12-10T08:13:12.213408", "MEAN_MOTION": 13.22935631, "ECCENTRICITY": 0.0030792, "INCLINATION": 89.9871, "RA_OF_ASC_NODE": 78.2754, "ARG_OF_PERICENTER": 23.4344, "MEAN_ANOMALY": 42.5562, "EPHEMERIS_TYPE": 0, "CLASSIFICATION_TYPE": "U", "NORAD_CAT_ID": 19223, "ELEMENT_SET_NO": 999, "REV_AT_EPOCH": 80916, "BSTAR": 0.00019451, "MEAN_MOTION_DOT": 9.1e-07, "MEAN_MOTION_DDOT": 0}, "tle": {"line1": "1 19223U 88052A   25344.34250247  .00000091  00000+0  19451-3 0  9997", "line2": "2 19223  89.9871  78.2754 0030792  23.4344  42.5562 13.22935631809168"}}, "geometry": {"type": "Point", "coordinates": [78.28355593171534, 34.01302774598878]}}, {"type": "Feature", "properties": {"norad_id": 19419, "name": "OSCAR 25", "group": "nnss", "lat": -26.842400874198468, "lon": 20.255500658737812, "alt_km": 1094.4664645529829, "timestamp": "2025-12-10T18:57:00.334144+00:00", "meta": {"OBJECT_NAME": "OSCAR 25", "OBJECT_ID": "1988-074A", "EPOCH": "2025-12-10T12:32:06.088416", "MEAN_MOTION": 13.42622723, "ECCENTRICITY": 0.0094362, "INCLINATION": 90.0349, "RA_OF_ASC_NODE": 20.2369, "ARG_OF_PERICENTER": 252.2793, "MEAN_ANOMALY": 228.7267, "EPHEMERIS_TYPE": 0, "CLASSIFICATION_TYPE": "U", "NORAD_CAT_ID": 19419, "ELEMENT_SET_NO": 999, "REV_AT_EPOCH": 82610, "BSTAR": 0.00021789, "MEAN_MOTION_DOT": 1.35e-06, "MEAN_MOTION_DDOT": 0}, "tle": {"line1": "1 19419U 88074A   25344.52229269  .00000135  00000+0  21789-3 0  9994", "line2": "2 19419  90.0349  20.2369 0094362 252.2793 228.7267 13.42622723826100"}}, "geometry": {"type": "Point", "coordinates": [20.255500658737812, -26.842400874198468]}}, {"type": "Feature", "properties": {"norad_id": 19420, "name": "OSCAR 31", "group": "nnss", "lat": -35.81051071540184, "lon": -159.43874186764975, "alt_km": 1045.7707145710492, "timestamp": "2025-12-10T18:57:00.334154+00:00", "meta": {"OBJECT_NAME": "OSCAR 31", "OBJECT_ID": "1988-074B", "EPOCH": "2025-12-10T08:59:02.817024", "MEAN_MOTION": 13.42584048, "ECCENTRICITY": 0.0092632, "INCLINATION": 90.0365, "RA_OF_ASC_NODE": 20.5861, "ARG_OF_PERICENTER": 246.8053, "MEAN_ANOMALY": 123.5934, "EPHEMERIS_TYPE": 0, "CLASSIFICATION_TYPE": "U", "NORAD_CAT_ID": 19420, "ELEMENT_SET_NO": 999, "REV_AT_EPOCH": 82619, "BSTAR": 0.00017491, "MEAN_MOTION_DOT": 1.1e-06, "MEAN_MOTION_DDOT": 0}, "tle": {"line1": "1 19420U 88074B   25344.37433816  .00000110  00000+0  17491-3 0  9992", "line2": "2 19420  90.0365  20.5861 0092632 246.8053 123.5934 13.42584048826195"}}, "geometry": {"type": "Point", "coordinates": [-159.43874186764975, -35.81051071540184]}}]}